API VERSION: 1.2
API SOURCE: NASA/JPL Horizons API



*******************************************************************************
Ephemeris / API_USER Tue Mar 31 10:02:17 2026 Pasadena, USA      / Horizons
*******************************************************************************
Target body name: Mars (499)                      {source: mar099}
Center body name: Earth (399)                     {source: DE441}
Center-site name: BODY CENTER
*******************************************************************************
Start time      : A.D. 2026-Jul-24 07:16:59.9808 TDB
Stop  time      : A.D. 2026-Jul-26 07:16:59.9808 TDB
Step-size       : 60 minutes
*******************************************************************************
Center geodetic : 0.0, 0.0, 0.0                   {E-lon(deg),Lat(deg),Alt(km)}
Center cylindric: 0.0, 0.0, 0.0                   {E-lon(deg),Dxy(km),Dz(km)}
Center radii    : 6378.137, 6378.137, 6356.752 km {Equator_a, b, pole_c}
Output units    : AU-D
Calendar mode   : Mixed Julian/Gregorian
Output type     : GEOMETRIC cartesian states
Output format   : 3 (position, velocity, LT, range, range-rate)
EOP file        : eop.260330.p260626
EOP coverage    : DATA-BASED 1962-JAN-20 TO 2026-MAR-30. PREDICTS-> 2026-JUN-25
Reference frame : Ecliptic of J2000.0
*******************************************************************************
            JDTDB,            Calendar Date (TDB),                      X,                      Y,                      Z,                     VX,                     VY,                     VZ,                     LT,                     RG,                     RR,
**************************************************************************************************************************************************************************************************************************************************************************
$$SOE
2461245.803472000, A.D. 2026-Jul-24 07:16:59.9808,  4.400692693268261E-01,  1.979599134441509E+00, -4.447236689558675E-04, -2.448150695419123E-02,  1.556258021713163E-03,  4.639359936718816E-04,  1.171230959224111E-02,  2.027923542115570E+00, -3.793534622065333E-03,
2461245.845138667, A.D. 2026-Jul-24 08:16:59.9808,  4.390492576688653E-01,  1.979663676729766E+00, -4.253928408430306E-04, -2.447905118115103E-02,  1.541772348587890E-03,  4.639437429042844E-04,  1.171139650606815E-02,  2.027765446145551E+00, -3.795072012007811E-03,
2461245.886805333, A.D. 2026-Jul-24 09:16:59.9808,  4.380293485156574E-01,  1.979727615515040E+00, -4.060616914821848E-04, -2.447658672528241E-02,  1.527289878441074E-03,  4.639514127987474E-04,  1.171048304987448E-02,  2.027607286108435E+00, -3.796609843312529E-03,
2461245.928472000, A.D. 2026-Jul-24 10:16:59.9808,  4.370095422290868E-01,  1.979790950930832E+00, -3.867302242734531E-04, -2.447411358186266E-02,  1.512810614693309E-03,  4.639589989518556E-04,  1.170956922355380E-02,  2.027449061985813E+00, -3.798148115669973E-03,
2461245.970138667, A.D. 2026-Jul-24 11:16:59.9808,  4.359898391711947E-01,  1.979853683110939E+00, -3.673984427706535E-04, -2.447163174883068E-02,  1.498334567592579E-03,  4.639664987519371E-04,  1.170865502700065E-02,  2.027290773759426E+00, -3.799686822691589E-03,
2461246.011805333, A.D. 2026-Jul-24 12:16:59.9808,  4.349702397039680E-01,  1.979915812189659E+00, -3.480663505617698E-04, -2.446914123166476E-02,  1.483861750171136E-03,  4.639739134209741E-04,  1.170774046011138E-02,  2.027132421411326E+00, -3.801225956892469E-03,
2461246.053472000, A.D. 2026-Jul-24 13:16:59.9808,  4.339507441889947E-01,  1.979977338301752E+00, -3.287339511091800E-04, -2.446664204304725E-02,  1.469392169933836E-03,  4.639812472374810E-04,  1.170682552278346E-02,  2.026974004923764E+00, -3.802765517714481E-03,
2461246.095138667, A.D. 2026-Jul-24 14:16:59.9808,  4.329313529872959E-01,  1.980038261582087E+00, -3.094012476926802E-04, -2.446413419627963E-02,  1.454925824750582E-03,  4.639885040713427E-04,  1.170591021491330E-02,  2.026815524278802E+00, -3.804305514116201E-03,
2461246.136805333, A.D. 2026-Jul-24 15:16:59.9808,  4.319120664594558E-01,  1.980098582165306E+00, -2.900682434976382E-04, -2.446161769840543E-02,  1.440462707050893E-03,  4.639956843937370E-04,  1.170499453639454E-02,  2.026656979458024E+00, -3.805845959014659E-03,
2461246.178472000, A.D. 2026-Jul-24 16:16:59.9808,  4.308928849659097E-01,  1.980158300185740E+00, -2.707349417587278E-04, -2.445909254975595E-02,  1.426002810267805E-03,  4.640027855365972E-04,  1.170407848711789E-02,  2.026498370442507E+00, -3.807386862914114E-03,
2461246.220138667, A.D. 2026-Jul-24 17:16:59.9808,  4.298738088671827E-01,  1.980217415777543E+00, -2.514013458640192E-04, -2.445655874623055E-02,  1.411546133109891E-03,  4.640098031035472E-04,  1.170316206697222E-02,  2.026339697213008E+00, -3.808928230233526E-03,
2461246.261805333, A.D. 2026-Jul-24 18:16:59.9808,  4.288548385239956E-01,  1.980275929074961E+00, -2.320674593854593E-04, -2.445401628327169E-02,  1.397092681477728E-03,  4.640167330197365E-04,  1.170224527584618E-02,  2.026180959750251E+00, -3.810470058283692E-03,
2461246.303472000, A.D. 2026-Jul-24 19:16:59.9808,  4.278359742971816E-01,  1.980333840212624E+00, -2.127332860177122E-04, -2.445146516097302E-02,  1.382642467048883E-03,  4.640235738786418E-04,  1.170132811362975E-02,  2.026022158035185E+00, -3.812012339724889E-03,
2461246.345138667, A.D. 2026-Jul-24 20:16:59.9808,  4.268172165474062E-01,  1.980391149325687E+00, -1.933988294316354E-04, -2.444890538748978E-02,  1.368195502234409E-03,  4.640303282053256E-04,  1.170041058021471E-02,  2.025863292049071E+00, -3.813555068197660E-03,
2461246.386805333, A.D. 2026-Jul-24 21:16:59.9808,  4.257985656348530E-01,  1.980447856549666E+00, -1.740640931373192E-04, -2.444633697662569E-02,  1.353751790801059E-03,  4.640370006038826E-04,  1.169949267549329E-02,  2.025704361773251E+00, -3.815098246960293E-03,
2461246.428472000, A.D. 2026-Jul-24 22:16:59.9808,  4.247800219191564E-01,  1.980503962020045E+00, -1.547290804782095E-04, -2.444375993975931E-02,  1.339311328199835E-03,  4.640435939070510E-04,  1.169857439935593E-02,  2.025545367188754E+00, -3.816641886865047E-03,
2461246.470138667, A.D. 2026-Jul-24 23:16:59.9808,  4.237615857596128E-01,  1.980559465872025E+00, -1.353937947523306E-04, -2.444117428140632E-02,  1.324874106327715E-03,  4.640501073988686E-04,  1.169765575169008E-02,  2.025386308276094E+00, -3.818186000786635E-03,
2461246.511805333, A.D. 2026-Jul-25 00:16:59.9808,  4.227432575154721E-01,  1.980614368240510E+00, -1.160582393518369E-04, -2.443857999975628E-02,  1.310440120083800E-03,  4.640565375573854E-04,  1.169673673238050E-02,  2.025227185015316E+00, -3.819730597344737E-03,
2461246.553472000, A.D. 2026-Jul-25 01:16:59.9808,  4.217250375461308E-01,  1.980668669260321E+00, -9.672241784040774E-05, -2.443597709018121E-02,  1.296009370757732E-03,  4.640628799892925E-04,  1.169581734131070E-02,  2.025067997386252E+00, -3.821275678336271E-03,
2461246.595138667, A.D. 2026-Jul-25 02:16:59.9808,  4.207069262111826E-01,  1.980722369066468E+00, -7.738633395683345E-05, -2.443336554864941E-02,  1.281581866181987E-03,  4.640691310797364E-04,  1.169489757836451E-02,  2.024908745368785E+00, -3.822821239299277E-03,
2461246.636805333, A.D. 2026-Jul-25 03:16:59.9808,  4.196889238702622E-01,  1.980775467794422E+00, -5.804999151919258E-05, -2.443074537803513E-02,  1.267157619587061E-03,  4.640752909359486E-04,  1.169397744342743E-02,  2.024749428943095E+00, -3.824367271933406E-03,
2461246.678472000, A.D. 2026-Jul-25 04:16:59.9808,  4.186710308827166E-01,  1.980827965580156E+00, -3.871339426398450E-05, -2.442811658889226E-02,  1.252736640660870E-03,  4.640813630970651E-04,  1.169305693638652E-02,  2.024590048089623E+00, -3.825913772983543E-03,
2461246.720138667, A.D. 2026-Jul-25 05:16:59.9808,  4.176532476073622E-01,  1.980879862559876E+00, -1.937654574921095E-05, -2.442547919504382E-02,  1.238318930234347E-03,  4.640873520241502E-04,  1.169213605712852E-02,  2.024430602788760E+00, -3.827460748510787E-03,
2461246.761805333, A.D. 2026-Jul-25 06:16:59.9808,  4.166355744025092E-01,  1.980931158869643E+00, -3.944939352186534E-08, -2.442283320561815E-02,  1.223904481460673E-03,  4.640932593651803E-04,  1.169121480553780E-02,  2.024271093020482E+00, -3.829008211097112E-03,
2461246.803472000, A.D. 2026-Jul-25 07:16:59.9808,  4.156180116262507E-01,  1.980981854645194E+00,  1.929789137208140E-05, -2.442017862236152E-02,  1.209493286883848E-03,  4.640990831882916E-04,  1.169029318149564E-02,  2.024111518764240E+00, -3.830556172394913E-03,
2461246.845138667, A.D. 2026-Jul-25 08:16:59.9808,  4.146005596367108E-01,  1.981031950022030E+00,  3.863547299208734E-05, -2.441751544229606E-02,  1.195085343138694E-03,  4.641048196051526E-04,  1.168937118488113E-02,  2.023951879999093E+00, -3.832104639092229E-03,
2461246.886805333, A.D. 2026-Jul-25 09:16:59.9808,  4.135832187922029E-01,  1.981081445135651E+00,  5.797329172810398E-05, -2.441484366002981E-02,  1.180680653759296E-03,  4.641104640877428E-04,  1.168844881557254E-02,  2.023792176703967E+00, -3.833653610646369E-03,
2461246.928472000, A.D. 2026-Jul-25 10:16:59.9808,  4.125659894512145E-01,  1.981130340121852E+00,  7.731134368774519E-05, -2.441216327357964E-02,  1.166279229079296E-03,  4.641160142555815E-04,  1.168752607344909E-02,  2.023632408857949E+00, -3.835203080570041E-03,
2461246.970138667, A.D. 2026-Jul-25 11:16:59.9808,  4.115488719721705E-01,  1.981178635116931E+00,  9.664962495591421E-05, -2.440947428826100E-02,  1.151881081900642E-03,  4.641214714219640E-04,  1.168660295839179E-02,  2.023472576440438E+00, -3.836753041447985E-03,
2461247.011805333, A.D. 2026-Jul-25 12:16:59.9808,  4.105318667131122E-01,  1.981226330257634E+00,  1.159881317431201E-04, -2.440677671672330E-02,  1.137486219251737E-03,  4.641268400011447E-04,  1.168567947028275E-02,  2.023312679431019E+00, -3.838303492991825E-03,
